[{"OBJECT_NAME":"VSP RF C1","OBJECT_ID":"2024-043AQ","EPOCH":"2026-03-09T21:56:05.358624","MEAN_MOTION":15.29409663,"ECCENTRICITY":0.00093965,"INCLINATION":97.5441,"RA_OF_ASC_NODE":205.1792,"ARG_OF_PERICENTER":219.6172,"MEAN_ANOMALY":140.4382,"EPHEMERIS_TYPE":0,"CLASSIFICATION_TYPE":"U","NORAD_CAT_ID":59136,"ELEMENT_SET_NO":999,"REV_AT_EPOCH":11190,"BSTAR":0.00026222052,"MEAN_MOTION_DOT":7.409e-5,"MEAN_MOTION_DDOT":0},{"OBJECT_NAME":"STARLINK-32652","OBJECT_ID":"2024-231S","EPOCH":"2026-03-09T17:22:21.396000","MEAN_MOTION":15.30215305,"ECCENTRICITY":0.00010249,"INCLINATION":53.1588,"RA_OF_ASC_NODE":219.4672,"ARG_OF_PERICENTER":101.166,"MEAN_ANOMALY":258.9456,"EPHEMERIS_TYPE":0,"CLASSIFICATION_TYPE":"U","NORAD_CAT_ID":62234,"ELEMENT_SET_NO":999,"REV_AT_EPOCH":7176,"BSTAR":0.0010210428,"MEAN_MOTION_DOT":0.00030018,"MEAN_MOTION_DDOT":0}]
